     3.03           N: GNSS NAV DATA    M: Mixed            RINEX VERSION / TYPE
CONVBIN 2.4.3                           20240108 115931 UTC PGM / RUN BY / DATE 
format: u-blox UBX                                          COMMENT             
log: /home/danisimo/MonCenter_Project/MonCenter/MonCenterLibCOMMENT             
comment                                                     COMMENT             
GLUT  -.4656612873D-09  .000000000D+00      0    0          TIME SYSTEM CORR    
                                                            END OF HEADER       
G02 2020 07 02 08 00 00 -.481023453176D-03 -.579802872380D-11  .000000000000D+00
      .104000000000D+03 -.131250000000D+03  .403231081907D-08 -.305917937864D+01
     -.656954944134D-05  .197183049750D-01  .887922942638D-05  .515373314476D+04
      .374400000000D+06  .221654772758D-06  .237047571153D+01 -.204890966415D-07
      .959689124710D+00  .205031250000D+03 -.162104195984D+01 -.748066874274D-08
     -.267868300647D-10  .100000000000D+01  .211200000000D+04  .000000000000D+00
      .280000000000D+01  .000000000000D+00 -.176951289177D-07  .104000000000D+03
      .374346000000D+06  .400000000000D+01
R23 2020 07 02 08 15 00  .315946526825D-03  .181898940355D-11  .374940000000D+06
      .126570898438D+04 -.303691387177D+01  .372529029846D-08  .000000000000D+00
      .104954960938D+05  .961931228638D+00  .931322574615D-09  .300000000000D+01
      .231997138672D+05 -.269312858582D+00 -.931322574615D-09  .000000000000D+00
G12 2020 07 02 10 00 00  .989604741335D-04 -.488853402203D-11  .000000000000D+00
      .650000000000D+02  .131750000000D+03  .417553107049D-08  .258577810072D+01
      .660866498947D-05  .800354953390D-02  .519677996635D-05  .515367123032D+04
      .381600000000D+06 -.651925802231D-07  .415311048035D+00 -.156462192535D-06
      .978138872599D+00  .282718750000D+03  .116393474541D+01 -.791032949697D-08
      .162506769059D-09  .100000000000D+01  .211200000000D+04  .000000000000D+00
      .200000000000D+01  .000000000000D+00 -.121071934700D-07  .650000000000D+02
      .377226000000D+06  .400000000000D+01
R23 2020 07 02 08 45 00  .315951183438D-03  .181898940355D-11  .377820000000D+06
     -.392551513672D+04 -.268564605713D+01  .279396772385D-08  .000000000000D+00
      .125843955078D+05  .133189201355D+01  .000000000000D+00  .300000000000D+01
      .218231650391D+05 -.125023365021D+01 -.931322574615D-09  .000000000000D+00
G29 2020 07 02 09 59 44 -.141050200909D-03 -.864019966684D-11  .000000000000D+00
      .690000000000D+02 -.515937500000D+02  .418624580251D-08  .221127824073D+00
     -.279583036900D-05  .159109605011D-02  .156275928020D-05  .515356040192D+04
      .381584000000D+06  .204890966415D-07  .146178342684D+01 -.540167093277D-07
      .985281518919D+00  .363656250000D+03  .200377200970D+01 -.817462622028D-08
     -.298226708054D-09  .100000000000D+01  .211200000000D+04  .000000000000D+00
      .200000000000D+01  .000000000000D+00 -.977888703346D-08  .690000000000D+02
      .377646000000D+06  .400000000000D+01
R17 2020 07 02 11 15 00  .337867997587D-03  .272848410532D-11  .385890000000D+06
      .430202099609D+04 -.127250194550D+01  .186264514923D-08  .000000000000D+00
      .130585473633D+05  .265670967102D+01 -.186264514923D-08  .400000000000D+01
      .214777773438D+05 -.136390209198D+01 -.931322574615D-09  .000000000000D+00
G20 2020 07 02 14 00 00  .527387019247D-03 -.113686837722D-12  .000000000000D+00
      .630000000000D+02 -.831250000000D+01  .491734768441D-08 -.687261793109D+00
     -.411644577980D-06  .526858191006D-02  .102296471596D-04  .515365264130D+04
      .396000000000D+06 -.204890966415D-07 -.293106375731D+01 -.171363353729D-06
      .934747240432D+00  .172906250000D+03  .267641156063D+01 -.808855120634D-08
      .542165440510D-09  .100000000000D+01  .211200000000D+04  .000000000000D+00
      .200000000000D+01  .000000000000D+00 -.884756445885D-08  .630000000000D+02
      .391416000000D+06  .400000000000D+01
G18 2020 07 02 14 00 00  .235957559198D-03  .989075488178D-11  .000000000000D+00
      .230000000000D+03 -.136875000000D+03  .410088510404D-08  .411678664869D+00
     -.732019543648D-05  .688839470968D-03  .100936740637D-04  .515372871208D+04
      .396000000000D+06  .186264514923D-07  .246402826501D+01  .186264514923D-07
      .964387157385D+00  .187531250000D+03  .258515242529D+01 -.784246952748D-08
     -.191436545529D-09  .100000000000D+01  .211200000000D+04  .000000000000D+00
      .200000000000D+01  .000000000000D+00 -.791624188423D-08  .486000000000D+03
      .390396000000D+06  .400000000000D+01
G15 2020 07 02 14 00 00 -.220278743654D-03  .261479726760D-11  .000000000000D+00
      .380000000000D+02 -.509375000000D+01  .570238038417D-08  .114697017683D+01
     -.223517417908D-06  .123972678557D-01  .550411641598D-05  .515369759560D+04
      .396000000000D+06 -.165775418282D-06 -.185564137957D+01  .540167093277D-07
      .927887904290D+00  .259531250000D+03  .888243318808D+00 -.871357724118D-08
     -.192865176466D-09  .100000000000D+01  .211200000000D+04  .000000000000D+00
      .200000000000D+01  .000000000000D+00 -.107102096081D-07  .380000000000D+02
      .390546000000D+06  .400000000000D+01
